     2.10           NAVIGATION                              RINEX VERSION / TYPE
fic2rin                                 06/08/2008 01:20:08 PGM / RUN BY / DATE
                                                            END OF HEADER
32 08  6  7 14  0  0.0  .294945202768D-03  .443378667114D-11  .000000000000D+00
     .380000000000D+02  .674687500000D+02  .438089676765D-08  .603961053539D+00
     .352039933205D-05  .136945167324D-01  .102389603853D-04  .515464852524D+04
     .568800000000D+06 -.130385160446D-06  .841085519617D+00 -.130385160446D-06
     .969205298560D+00  .193468750000D+03 -.130177770111D+01 -.807140763510D-08
    -.183579075377D-09  .100000000000D+01  .148200000000D+04  .000000000000D+00
     .240000000000D+01  .000000000000D+00 -.279396772385D-08  .380000000000D+02
     .561606000000D+06  .400000000000D+01
25 08  6  7 13 59 44.0 -.207171775401D-03 -.312638803734D-10  .000000000000D+00
     .160000000000D+02 -.716562500000D+02  .444625663301D-08 -.228375545508D+01
    -.367686152458D-05  .117402462056D-01  .228360295296D-05  .515370319557D+04
     .568784000000D+06  .782310962677D-07  .275652711061D+01  .141561031342D-06
     .965149429868D+00  .338875000000D+03 -.124600084210D+01 -.817676916669D-08
    -.295726603914D-09  .100000000000D+01  .148200000000D+04  .000000000000D+00
     .240000000000D+01  .000000000000D+00 -.745058059692D-08  .160000000000D+02
     .566016000000D+06  .400000000000D+01
25 08  6  7 15 59 44.0 -.207396689802D-03 -.312638803734D-10  .000000000000D+00
     .170000000000D+02 -.649687500000D+02  .471591072233D-08 -.123363396464D+01
    -.335089862347D-05  .117408750812D-01  .246986746788D-05  .515370205116D+04
     .575984000000D+06 -.244006514549D-06  .275646654873D+01 -.335276126862D-07
     .965145681872D+00  .332625000000D+03 -.124595780452D+01 -.856214236188D-08
    -.243581574722D-09  .100000000000D+01  .148200000000D+04  .000000000000D+00
     .240000000000D+01  .000000000000D+00 -.745058059692D-08  .170000000000D+02
     .568806000000D+06  .400000000000D+01
 2 08  6  7 16  0  0.0  .206111930311D-03  .227373675443D-12  .000000000000D+00
     .430000000000D+02  .153125000000D+01  .518985903560D-08  .247591137009D+01
    -.502914190292D-07  .879445194732D-02  .646151602268D-05  .515373017502D+04
     .576000000000D+06  .428408384323D-07 -.299501680841D+00  .163912773132D-06
     .943508216470D+00  .240187500000D+03  .257521587169D+01 -.820748473183D-08
    -.266796827444D-09  .100000000000D+01  .148200000000D+04  .000000000000D+00
     .240000000000D+01  .000000000000D+00 -.172294676304D-07  .430000000000D+02
     .568806000000D+06  .400000000000D+01
 3 08  6  7 16  0  0.0  .238906126469D-03  .511590769747D-11  .000000000000D+00
     .182000000000D+03  .103125000000D+02  .526093342471D-08  .206815967035D+01
     .499188899994D-06  .106510737678D-01  .848062336445D-05  .515368594933D+04
     .576000000000D+06 -.195577740669D-06 -.144355691879D+01 -.214204192162D-06
     .925484890183D+00  .197625000000D+03  .814825652942D+00 -.834606193269D-08
     .508235455761D-09  .100000000000D+01  .148200000000D+04  .000000000000D+00
     .340000000000D+01  .000000000000D+00 -.419095158577D-08  .182000000000D+03
     .568806000000D+06  .400000000000D+01
 4 08  6  7 16  0  0.0 -.853980891407D-04 -.898126018001D-11  .000000000000D+00
     .640000000000D+02 -.287500000000D+01  .519128766654D-08 -.111958959933D+01
    -.163912773132D-06  .805679662153D-02  .628083944321D-05  .515377933693D+04
     .576000000000D+06  .137835741043D-06 -.280661746368D+00 -.819563865662D-07
     .942823028066D+00  .240281250000D+03  .377161490221D+00 -.830070290045D-08
    -.157506560780D-09  .100000000000D+01  .148200000000D+04  .000000000000D+00
     .340000000000D+01  .000000000000D+00 -.605359673500D-08  .640000000000D+02
     .568806000000D+06  .400000000000D+01
 5 08  6  7 16  0  0.0 -.396874733269D-03  .886757334229D-11  .000000000000D+00
     .135000000000D+03 -.111843750000D+03  .461840666089D-08 -.149870313868D+01
    -.581704080105D-05  .882903754245D-02  .940449535847D-05  .515358822632D+04
     .576000000000D+06  .244006514549D-06 -.247644375524D+01  .175088644028D-06
     .942892325033D+00  .187687500000D+03  .122389643812D+01 -.806605026908D-08
    -.117147736816D-09  .100000000000D+01  .148200000000D+04  .000000000000D+00
     .240000000000D+01  .000000000000D+00 -.419095158577D-08  .135000000000D+03
     .568806000000D+06  .400000000000D+01
 6 08  6  7 16  0  0.0  .143776647747D-03  .682121026330D-11  .000000000000D+00
     .118000000000D+03  .187500000000D+02  .512592780118D-08 -.153682803023D+01
     .123679637909D-05  .593397696503D-02  .797212123871D-05  .515373142052D+04
     .576000000000D+06  .577419996262D-07 -.137880527387D+01  .987201929092D-07
     .933042588306D+00  .210125000000D+03 -.166622775278D+01 -.830570310873D-08
     .520378818724D-09  .100000000000D+01  .148200000000D+04  .000000000000D+00
     .240000000000D+01  .000000000000D+00 -.465661287308D-08  .118000000000D+03
     .568806000000D+06  .400000000000D+01
 7 08  6  7 16  0  0.0 -.256909988821D-04  .773070496507D-11  .000000000000D+00
     .150000000000D+02 -.819375000000D+02  .465126517244D-08  .848222402039D+00
    -.452250242233D-05  .171740399674D-02  .270828604698D-05  .515371257210D+04
     .576000000000D+06 -.931322574615D-08  .285164567401D+01 -.484287738800D-07
     .962725741803D+00  .324531250000D+03  .261041320962D+01 -.837213444729D-08
    -.342157109360D-09  .100000000000D+01  .148200000000D+04  .000000000000D+00
     .240000000000D+01  .000000000000D+00 -.107102096081D-07  .150000000000D+02
     .568806000000D+06  .400000000000D+01
 8 08  6  7 16  0  0.0 -.156419817358D-03 -.170530256582D-11  .000000000000D+00
     .110000000000D+02 -.828750000000D+02  .420838958203D-08 -.111326646802D-01
    -.463798642159D-05  .101739671081D-01  .367127358913D-05  .515360823822D+04
     .576000000000D+06  .689178705215D-07  .290464446768D+01 -.651925802231D-07
     .983935420700D+00  .320312500000D+03  .288124743513D+01 -.826498712703D-08
    -.340371320689D-09  .100000000000D+01  .148200000000D+04  .000000000000D+00
     .340000000000D+01  .000000000000D+00 -.372529029846D-08  .110000000000D+02
     .568806000000D+06  .400000000000D+01
 9 08  6  7 16  0  0.0  .127980019897D-03  .170530256582D-11  .000000000000D+00
     .600000000000D+02 -.590000000000D+02  .467912347570D-08 -.393597424581D+00
    -.292249023914D-05  .199658571510D-01  .271201133728D-05  .515366365051D+04
     .576000000000D+06 -.232830643654D-06  .281506374117D+01  .173225998878D-06
     .971739891907D+00  .332218750000D+03  .140660607897D+01 -.877036532092D-08
    -.195722438339D-09  .100000000000D+01  .148200000000D+04  .000000000000D+00
     .240000000000D+01  .000000000000D+00 -.558793544769D-08  .600000000000D+02
     .568806000000D+06  .400000000000D+01
10 08  6  7 16  0  0.0 -.207126140594D-05 -.227373675443D-12  .000000000000D+00
     .620000000000D+02  .749687500000D+02  .431053669401D-08 -.300131257438D+01
     .371038913727D-05  .799274654128D-02  .108834356070D-04  .515365483475D+04
     .576000000000D+06 -.856816768646D-07  .781809132346D+00 -.188127160072D-06
     .963738797944D+00  .173531250000D+03  .561381390645D+00 -.771067832356D-08
    -.275011455331D-09  .100000000000D+01  .148200000000D+04  .000000000000D+00
     .340000000000D+01  .000000000000D+00 -.232830643654D-08  .620000000000D+02
     .568806000000D+06  .400000000000D+01
11 08  6  7 16  0  0.0  .249054282904D-04 -.341060513165D-12  .000000000000D+00
     .720000000000D+02 -.281250000000D+00  .652884338110D-08  .370681319039D+00
    -.130385160446D-07  .806458014995D-02  .527873635292D-05  .515362524605D+04
     .576000000000D+06  .223517417908D-07 -.481657585257D+00  .119209289551D-06
     .891136518727D+00  .242093750000D+03  .591334952846D+00 -.912002274270D-08
    -.125719522437D-09  .100000000000D+01  .148200000000D+04  .000000000000D+00
     .240000000000D+01  .000000000000D+00 -.116415321827D-07  .720000000000D+02
     .568806000000D+06  .400000000000D+01
12 08  6  7 16  0  0.0 -.358739867806D-03  .341060513165D-12  .000000000000D+00
     .700000000000D+02 -.107562500000D+03  .416695928487D-08  .836701468660D+00
    -.576116144657D-05  .342625775374D-02  .102277845144D-04  .515360310745D+04
     .576000000000D+06  .651925802231D-07 -.238282536313D+01 -.409781932831D-07
     .964111701614D+00  .184750000000D+03 -.940591704951D+00 -.789461455667D-08
    -.396445084958D-10  .100000000000D+01  .148200000000D+04  .000000000000D+00
     .240000000000D+01  .000000000000D+00 -.116415321827D-07  .700000000000D+02
     .568806000000D+06  .400000000000D+01
13 08  6  7 16  0  0.0  .258788000792D-03  .159161572810D-11  .000000000000D+00
     .340000000000D+02  .854375000000D+02  .397909431668D-08  .296990232467D+01
     .455603003502D-05  .381398142781D-02  .380538403988D-05  .515362686729D+04
     .576000000000D+06  .124797224998D-06  .185123364105D+01 -.689178705215D-07
     .995239150243D+00  .321406250000D+03  .146601534602D+01 -.793711632704D-08
     .128576784311D-09  .100000000000D+01  .148200000000D+04  .000000000000D+00
     .240000000000D+01  .000000000000D+00 -.111758708954D-07  .340000000000D+02
     .568806000000D+06  .400000000000D+01
14 08  6  7 16  0  0.0 -.258096959442D-03  .420641299570D-11  .000000000000D+00
     .690000000000D+02  .857812500000D+02  .404874007485D-08  .272734293946D+01
     .442750751972D-05  .374446075875D-02  .504031777382D-05  .515370051765D+04
     .576000000000D+06 -.614672899246D-07  .183385410112D+01 -.104308128357D-06
     .988977509763D+00  .294750000000D+03 -.216662966203D+01 -.789818613401D-08
     .123219418298D-09  .100000000000D+01  .148200000000D+04  .000000000000D+00
     .240000000000D+01  .000000000000D+00 -.884756445885D-08  .690000000000D+02
     .568806000000D+06  .400000000000D+01
